USA 119                 
1 23893U 96029A   26068.41677233  .00001640  00000+0  29026-3 0  9998
2 23893  63.3196  93.1190 0846389  47.6314 319.3281 13.45886981 91843
STARLINK-35525          
1 66134U 25237W   26068.15135011  .00019661  00000+0  67438-3 0  9991
2 66134  53.1581  42.4410 0001022  74.7663 285.3451 15.30190816 22521
